QIANFAN-73              
1 63159U 25046A   25255.50575218  .00000140  00000+0  19872-3 0  9997
2 63159  88.9847 329.4471 0015571  35.9935 324.2262 13.50971882 35095
QIANFAN-74              
1 63160U 25046B   25255.56324823  .00000151  00000+0  21602-3 0  9995
2 63160  88.9846 329.3296 0002197 108.9009 251.2381 13.50977823 35163
QIANFAN-75              
1 63161U 25046C   25255.55103213  .00000145  00000+0  20526-3 0  9990
2 63161  88.9848 329.5630 0016755  38.3449 321.8890 13.50974429 35033
QIANFAN-76              
1 63162U 25046D   25255.54685601  .00000132  00000+0  18649-3 0  9995
2 63162  88.9847 329.5445 0014368  40.2731 319.9481 13.50970105 35043
QIANFAN-77              
1 63163U 25046E   25255.58791662  .00000303  00000+0  21136-3 0  9990
2 63163  88.9843 328.2958 0014582  14.8917 345.2686 13.96041921 35736
QIANFAN-78              
1 63164U 25046F   25255.51397697  .00000147  00000+0  20832-3 0  9992
2 63164  88.9846 329.4129 0015811  41.8214 318.4142 13.50973875 35112
QIANFAN-79              
1 63165U 25046G   25255.54262805  .00000155  00000+0  22201-3 0  9999
2 63165  88.9850 329.5139 0015441  40.2805 319.9487 13.50976168 35068
QIANFAN-80              
1 63166U 25046H   25255.55920418  .00000151  00000+0  21510-3 0  9990
2 63166  88.9847 329.2217 0014595  44.8884 315.3445 13.50976230 35227
